{
  "type": "FeatureCollection",
  "features": [
    {
      "type": "Feature",
      "properties": {
        "norad_id": 37846,
        "name": "GSAT0101 (GALILEO-PFM)",
        "group": "galileo",
        "lat": 53.61311840186375,
        "lon": 104.92413529955165,
        "alt_km": 23223.710924846993,
        "timestamp": "2025-12-20T16:47:36.549526+00:00",
        "meta_object_name": "GSAT0101 (GALILEO-PFM)",
        "meta_object_id": "2011-060A",
        "meta_epoch": "2025-12-18T18:24:05.988672",
        "meta_mean_motion": 1.70475824,
        "meta_eccentricity": 0.000318,
        "meta_inclination": 57.0514,
        "meta_ra_of_asc_node": 346.6564,
        "meta_arg_of_pericenter": 319.1021,
        "meta_mean_anomaly": 40.8874,
        "meta_ephemeris_type": 0,
        "meta_classification_type": "U",
        "meta_norad_cat_id": 37846,
        "meta_element_set_no": 999,
        "meta_rev_at_epoch": 8804,
        "meta_bstar": 0,
        "meta_mean_motion_dot": -7.5e-07,
        "meta_mean_motion_ddot": 0,
        "tle_line1": "1 37846U 11060A   25352.76673598 -.00000075  00000+0  00000+0 0  9995",
        "tle_line2": "2 37846  57.0514 346.6564 0003180 319.1021  40.8874  1.70475824 88044"
      },
      "geometry": {
        "type": "Point",
        "coordinates": [
          104.92413529955165,
          53.61311840186375
        ]
      }
    },
    {
      "type": "Feature",
      "properties": {
        "norad_id": 37847,
        "name": "GSAT0102 (GALILEO-FM2)",
        "group": "galileo",
        "lat": 23.358604830496244,
        "lon": 150.32707184227326,
        "alt_km": 23233.37904911858,
        "timestamp": "2025-12-20T16:47:36.549550+00:00",
        "meta_object_name": "GSAT0102 (GALILEO-FM2)",
        "meta_object_id": "2011-060B",
        "meta_epoch": "2025-12-18T09:18:10.933920",
        "meta_mean_motion": 1.7047603,
        "meta_eccentricity": 0.0005099,
        "meta_inclination": 57.0522,
        "meta_ra_of_asc_node": 346.6671,
        "meta_arg_of_pericenter": 311.9548,
        "meta_mean_anomaly": 220.8374,
        "meta_ephemeris_type": 0,
        "meta_classification_type": "U",
        "meta_norad_cat_id": 37847,
        "meta_element_set_no": 999,
        "meta_rev_at_epoch": 8804,
        "meta_bstar": 0,
        "meta_mean_motion_dot": -7.6e-07,
        "meta_mean_motion_ddot": 0,
        "tle_line1": "1 37847U 11060B   25352.38762655 -.00000076  00000+0  00000+0 0  9998",
        "tle_line2": "2 37847  57.0522 346.6671 0005099 311.9548 220.8374  1.70476030 88043"
      },
      "geometry": {
        "type": "Point",
        "coordinates": [
          150.32707184227326,
          23.358604830496244
        ]
      }
    },
    {
      "type": "Feature",
      "properties": {
        "norad_id": 38857,
        "name": "GSAT0103 (GALILEO-FM3)",
        "group": "galileo",
        "lat": 54.841199590619276,
        "lon": -178.11816974149215,
        "alt_km": 23224.288235199645,
        "timestamp": "2025-12-20T16:47:36.549564+00:00",
        "meta_object_name": "GSAT0103 (GALILEO-FM3)",
        "meta_object_id": "2012-055A",
        "meta_epoch": "2025-12-18T05:17:11.481792",
        "meta_mean_motion": 1.70473412,
        "meta_eccentricity": 0.00028558,
        "meta_inclination": 55.6954,
        "meta_ra_of_asc_node": 106.5161,
        "meta_arg_of_pericenter": 269.0808,
        "meta_mean_anomaly": 90.8455,
        "meta_ephemeris_type": 0,
        "meta_classification_type": "U",
        "meta_norad_cat_id": 38857,
        "meta_element_set_no": 999,
        "meta_rev_at_epoch": 8192,
        "meta_bstar": 0,
        "meta_mean_motion_dot": -7e-08,
        "meta_mean_motion_ddot": 0,
        "tle_line1": "1 38857U 12055A   25352.22027178 -.00000007  00000+0  00000+0 0  9996",
        "tle_line2": "2 38857  55.6954 106.5161 0002855 269.0808  90.8455  1.70473412 81920"
      },
      "geometry": {
        "type": "Point",
        "coordinates": [
          -178.11816974149215,
          54.841199590619276
        ]
      }
    },
    {
      "type": "Feature",
      "properties": {
        "norad_id": 40128,
        "name": "GSAT0201 (GALILEO 5)",
        "group": "galileo",
        "lat": 24.734061852143295,
        "lon": 77.20316499065808,
        "alt_km": 17319.71223871596,
        "timestamp": "2025-12-20T16:47:36.549577+00:00",
        "meta_object_name": "GSAT0201 (GALILEO 5)",
        "meta_object_id": "2014-050A",
        "meta_epoch": "2025-12-18T20:33:33.240672",
        "meta_mean_motion": 1.85519721,
        "meta_eccentricity": 0.1648519,
        "meta_inclination": 49.0697,
        "meta_ra_of_asc_node": 280.8143,
        "meta_arg_of_pericenter": 172.5106,
        "meta_mean_anomaly": 190.3447,
        "meta_ephemeris_type": 0,
        "meta_classification_type": "U",
        "meta_norad_cat_id": 40128,
        "meta_element_set_no": 999,
        "meta_rev_at_epoch": 7497,
        "meta_bstar": 0,
        "meta_mean_motion_dot": -5.8e-07,
        "meta_mean_motion_ddot": 0,
        "tle_line1": "1 40128U 14050A   25352.85663473 -.00000058  00000+0  00000+0 0  9996",
        "tle_line2": "2 40128  49.0697 280.8143 1648519 172.5106 190.3447  1.85519721 74978"
      },
      "geometry": {
        "type": "Point",
        "coordinates": [
          77.20316499065808,
          24.734061852143295
        ]
      }
    },
    {
      "type": "Feature",
      "properties": {
        "norad_id": 40129,
        "name": "GSAT0202 (GALILEO 6)",
        "group": "galileo",
        "lat": -10.99619678383576,
        "lon": -89.87576201506143,
        "alt_km": 26162.78536325778,
        "timestamp": "2025-12-20T16:47:36.549589+00:00",
        "meta_object_name": "GSAT0202 (GALILEO 6)",
        "meta_object_id": "2014-050B",
        "meta_epoch": "2025-12-18T13:46:22.484640",
        "meta_mean_motion": 1.85520466,
        "meta_eccentricity": 0.16491259,
        "meta_inclination": 49.0858,
        "meta_ra_of_asc_node": 279.9095,
        "meta_arg_of_pericenter": 173.2442,
        "meta_mean_anomaly": 189.3393,
        "meta_ephemeris_type": 0,
        "meta_classification_type": "U",
        "meta_norad_cat_id": 40129,
        "meta_element_set_no": 999,
        "meta_rev_at_epoch": 7713,
        "meta_bstar": 0,
        "meta_mean_motion_dot": -5.9e-07,
        "meta_mean_motion_ddot": 0,
        "tle_line1": "1 40129U 14050B   25352.57387135 -.00000059  00000+0  00000+0 0  9995",
        "tle_line2": "2 40129  49.0858 279.9095 1649125 173.2442 189.3393  1.85520466 77135"
      },
      "geometry": {
        "type": "Point",
        "coordinates": [
          -89.87576201506143,
          -10.99619678383576
        ]
      }
    },
    {
      "type": "Feature",
      "properties": {
        "norad_id": 40544,
        "name": "GSAT0203 (GALILEO 7)",
        "group": "galileo",
        "lat": -47.9065588922448,
        "lon": -147.18340053870836,
        "alt_km": 23210.919251447987,
        "timestamp": "2025-12-20T16:47:36.549601+00:00",
        "meta_object_name": "GSAT0203 (GALILEO 7)",
        "meta_object_id": "2015-017A",
        "meta_epoch": "2025-12-17T08:55:11.074944",
        "meta_mean_motion": 1.7047611,
        "meta_eccentricity": 0.00064774,
        "meta_inclination": 56.8452,
        "meta_ra_of_asc_node": 346.5536,
        "meta_arg_of_pericenter": 273.4606,
        "meta_mean_anomaly": 86.4809,
        "meta_ephemeris_type": 0,
        "meta_classification_type": "U",
        "meta_norad_cat_id": 40544,
        "meta_element_set_no": 999,
        "meta_rev_at_epoch": 6610,
        "meta_bstar": 0,
        "meta_mean_motion_dot": -7.9e-07,
        "meta_mean_motion_ddot": 0,
        "tle_line1": "1 40544U 15017A   25351.37165596 -.00000079  00000+0  00000+0 0  9994",
        "tle_line2": "2 40544  56.8452 346.5536 0006477 273.4606  86.4809  1.70476110 66108"
      },
      "geometry": {
        "type": "Point",
        "coordinates": [
          -147.18340053870836,
          -47.9065588922448
        ]
      }
    },
    {
      "type": "Feature",
      "properties": {
        "norad_id": 40545,
        "name": "GSAT0204 (GALILEO 8)",
        "group": "galileo",
        "lat": 56.5829244866267,
        "lon": 68.59864512702354,
        "alt_km": 23233.760472984603,
        "timestamp": "2025-12-20T16:47:36.549613+00:00",
        "meta_object_name": "GSAT0204 (GALILEO 8)",
        "meta_object_id": "2015-017B",
        "meta_epoch": "2025-12-19T23:21:47.998080",
        "meta_mean_motion": 1.70475712,
        "meta_eccentricity": 0.0006143,
        "meta_inclination": 56.8524,
        "meta_ra_of_asc_node": 346.5006,
        "meta_arg_of_pericenter": 266.3494,
        "meta_mean_anomaly": 93.5911,
        "meta_ephemeris_type": 0,
        "meta_classification_type": "U",
        "meta_norad_cat_id": 40545,
        "meta_element_set_no": 999,
        "meta_rev_at_epoch": 2919,
        "meta_bstar": 0,
        "meta_mean_motion_dot": -7.2e-07,
        "meta_mean_motion_ddot": 0,
        "tle_line1": "1 40545U 15017B   25353.97347220 -.00000072  00000+0  00000+0 0  9992",
        "tle_line2": "2 40545  56.8524 346.5006 0006143 266.3494  93.5911  1.70475712 29195"
      },
      "geometry": {
        "type": "Point",
        "coordinates": [
          68.59864512702354,
          56.5829244866267
        ]
      }
    }
  ]
}